GLOBALSTAR M075 [+]     
1 37192U 10054E   23234.91163931 -.00000102  00000+0  12215-4 0  9997
2 37192  51.9956  44.1090 0000608  81.5269  82.4163 12.62260424592483
GLOBALSTAR M073 [+]     
1 37193U 10054F   23234.16394675 -.00000084  00000+0  10804-3 0  9996
2 37193  52.0078 319.7018 0000575 110.4800 253.6495 12.62266550593890
GLOBALSTAR M083 [+]     
1 37739U 11033A   23235.05113664 -.00000103  00000+0  22495-5 0  9999
2 37739  51.9840 266.6392 0000473 146.9350 231.5741 12.62268715563348
GLOBALSTAR M088 [+]     
1 37740U 11033B   23234.17300515 -.00000086  00000+0  98638-4 0  9997
2 37740  51.9723 175.3618 0000076  30.7530  75.2257 12.62264848558708
GLOBALSTAR M091 [+]     
1 37741U 11033C   23234.19792647 -.00000080  00000+0  13538-3 0  9990
2 37741  51.9993 137.6527 0000226  56.2570 102.4558 12.62265707559468
GLOBALSTAR M085 [+]     
1 37742U 11033D   23235.05566422 -.00000099  00000+0  27198-4 0  9995
2 37742  51.9862  86.6665 0000554  80.7287  78.4144 12.62266611560315
GLOBALSTAR M081 [+]     
1 37743U 11033E   23234.57587558 -.00000095  00000+0  51730-4 0  9990
2 37743  51.9954  90.5055 0000463  55.2045 322.0471 12.62270398560298
GLOBALSTAR M089 [+]     
1 37744U 11033F   23234.71998403 -.00000106  00000+0 -13198-4 0  9992
2 37744  51.9938  44.4183 0000884  68.3309  63.9797 12.62266283561028
